idElset,classificationMarking,satNo,epoch,meanMotion,idOnOrbit,uct,eccentricity,inclination,raan,argOfPerigee,meanAnomaly,bStar,meanMotionDot,meanMotionDDot,semiMajorAxis,period,apogee,perigee,origObjectId,line1,line2,createdAt,createdBy,source,dataMode,ephemType,origNetwork,elset
432443a7-5f5a-49f8-a569-fd6770d46ad6,U//PR-EXO-ELSETS,14421,2025-08-09T04:51:24.210254Z,0.9969610507846005,14421,False,0.0005461935946034352,12.34578546434569,333.2305364779186,143.2780298761326,244.9709283907113,0.0,0.0,0.0,42326.89407636805,1444.389426113218,42350.01275479202,42303.77539794408,14421,1 14421U 83105A   25221.20236354 +.00000000 +00000+0 +00000+0 2 99995,2 14421  12.3458 333.2305 0005461 143.2780 244.9709  0.99696105000007,2025-08-09T06:30:31.760Z,system.exo,EXO,REAL,2,OPS1,"{'NORAD_ID': 14421, 'classification': 'U', 'COSPAR_ID': '83105A', 'BC': 0.0, 'n_ddot': 0.0, 'B_star': 0.0, 'ephemeris_type': 2, 'elset_num': 9999, 'inclination': 12.3458, 'RAAN': 333.2305, 'eccentricity': 0.0005461, 'perigee': 143.278, 'mean_anomaly': 244.9709, 'mean_motion': 0.99696105, 'rev_num': 0, 'line1': '1 14421U 83105A   25221.20236354 +.00000000 +00000+0 +00000+0 2 99995', 'line2': '2 14421  12.3458 333.2305 0005461 143.2780 244.9709  0.99696105000007', 'epoch': datetime.datetime(2025, 8, 9, 4, 51, 24, 209856)}"
88674c1a-5456-4ca3-ab24-2ae080c23902,U//PR-EXO-ELSETS,17046,2025-08-09T05:44:26.209249Z,0.9845865646748245,17046,False,0.001313378970719389,11.61551805463595,327.3228251544804,186.2174773723088,223.4047949311274,0.0,0.0,0.0,42680.80404331659,1462.542808996772,42736.86011380047,42624.7479728327,17046,1 17046U 86082A   25221.23919224 +.00000000 +00000+0 +00000+0 2 99995,2 17046  11.6155 327.3228 0013133 186.2175 223.4048  0.98458656000001,2025-08-09T06:45:30.887Z,system.exo,EXO,REAL,2,OPS1,"{'NORAD_ID': 17046, 'classification': 'U', 'COSPAR_ID': '86082A', 'BC': 0.0, 'n_ddot': 0.0, 'B_star': 0.0, 'ephemeris_type': 2, 'elset_num': 9999, 'inclination': 11.6155, 'RAAN': 327.3228, 'eccentricity': 0.0013133, 'perigee': 186.2175, 'mean_anomaly': 223.4048, 'mean_motion': 0.98458656, 'rev_num': 0, 'line1': '1 17046U 86082A   25221.23919224 +.00000000 +00000+0 +00000+0 2 99995', 'line2': '2 17046  11.6155 327.3228 0013133 186.2175 223.4048  0.98458656000001', 'epoch': datetime.datetime(2025, 8, 9, 5, 44, 26, 209536)}"
4a7569fa-2e81-49ef-ae36-5f8936a166c9,U//PR-EXO-ELSETS,16870,2025-08-09T20:15:51.444139Z,0.9779740022108994,16870,False,0.003355967892729206,11.55383244636946,324.539775464687,170.1574350236696,96.42536904652682,0.0,0.0,0.0,42872.97846747662,1472.431779111307,43016.85880667915,42729.0981282741,16870,1 16870U 86007F   25221.84434542 +.00000000 +00000+0 +00000+0 2 99998,2 16870  11.5538 324.5398 0033559 170.1574  96.4254  0.97797400000004,2025-08-09T20:48:30.038Z,system.exo,EXO,REAL,2,OPS1,"{'NORAD_ID': 16870, 'classification': 'U', 'COSPAR_ID': '86007F', 'BC': 0.0, 'n_ddot': 0.0, 'B_star': 0.0, 'ephemeris_type': 2, 'elset_num': 9999, 'inclination': 11.5538, 'RAAN': 324.5398, 'eccentricity': 0.0033559, 'perigee': 170.1574, 'mean_anomaly': 96.4254, 'mean_motion': 0.977974, 'rev_num': 0, 'line1': '1 16870U 86007F   25221.84434542 +.00000000 +00000+0 +00000+0 2 99998', 'line2': '2 16870  11.5538 324.5398 0033559 170.1574  96.4254  0.97797400000004', 'epoch': datetime.datetime(2025, 8, 9, 20, 15, 51, 444288)}"
a88758b8-099f-424c-9a48-8972cdd5e7eb,U//PR-EXO-ELSETS,41122,2025-08-09T20:14:39.417171Z,1.046367214548328,41122,False,0.0334319051348634,7.763966620701558,62.36518776190017,153.2856218006691,141.0243375306688,0.0,0.0,0.0,40983.82106320915,1376.189907308579,42353.98828105858,39613.65384535972,41122,1 41122U 15075B   25221.84351177 +.00000000 +00000+0 +00000+0 2 99995,2 41122   7.7640  62.3652 0334319 153.2856 141.0243  1.04636721000008,2025-08-09T20:54:31.722Z,system.exo,EXO,REAL,2,OPS1,"{'NORAD_ID': 41122, 'classification': 'U', 'COSPAR_ID': '15075B', 'BC': 0.0, 'n_ddot': 0.0, 'B_star': 0.0, 'ephemeris_type': 2, 'elset_num': 9999, 'inclination': 7.764, 'RAAN': 62.3652, 'eccentricity': 0.0334319, 'perigee': 153.2856, 'mean_anomaly': 141.0243, 'mean_motion': 1.04636721, 'rev_num': 0, 'line1': '1 41122U 15075B   25221.84351177 +.00000000 +00000+0 +00000+0 2 99995', 'line2': '2 41122   7.7640  62.3652 0334319 153.2856 141.0243  1.04636721000008', 'epoch': datetime.datetime(2025, 8, 9, 20, 14, 39, 416928)}"
991eeb6f-4eab-4a58-8dbb-20bed7c0734f,U//PR-EXO-ELSETS,24652,2025-08-09T20:14:56.029271Z,0.9941111681840196,24652,False,0.000534469987383683,9.909199166643782,51.6520359464576,105.6870979073643,67.03088033747449,0.0,0.0,0.0,42407.74963284977,1448.530150436296,42430.415302261,42385.08396343853,24652,1 24652U 96063A   25221.84370404 +.00000000 +00000+0 +00000+0 2 99994,2 24652   9.9092  51.6520 0005344 105.6871  67.0309  0.99411116000000,2025-08-09T20:36:29.543Z,system.exo,EXO,REAL,2,OPS1,"{'NORAD_ID': 24652, 'classification': 'U', 'COSPAR_ID': '96063A', 'BC': 0.0, 'n_ddot': 0.0, 'B_star': 0.0, 'ephemeris_type': 2, 'elset_num': 9999, 'inclination': 9.9092, 'RAAN': 51.652, 'eccentricity': 0.0005344, 'perigee': 105.6871, 'mean_anomaly': 67.0309, 'mean_motion': 0.99411116, 'rev_num': 0, 'line1': '1 24652U 96063A   25221.84370404 +.00000000 +00000+0 +00000+0 2 99994', 'line2': '2 24652   9.9092  51.6520 0005344 105.6871  67.0309  0.99411116000000', 'epoch': datetime.datetime(2025, 8, 9, 20, 14, 56, 29056)}"
15b7b13e-6790-4a0f-a982-fc2d3a3950c7,U//PR-EXO-ELSETS,37952,2025-08-09T20:14:56.029271Z,0.8962269183147955,37952,False,0.07919763427144536,10.60115620104653,52.50417974166903,173.7782696536476,358.3671191062,0.0,0.0,0.0,45441.90609314915,1606.735939942173,49040.79755251174,41843.01463378657,37952,1 37952U 11074C   25221.84370404 +.00000000 +00000+0 +00000+0 2 99990,2 37952  10.6012  52.5042 0791976 173.7783 358.3671  0.89622691000007,2025-08-09T20:39:30.724Z,system.exo,EXO,REAL,2,OPS1,"{'NORAD_ID': 37952, 'classification': 'U', 'COSPAR_ID': '11074C', 'BC': 0.0, 'n_ddot': 0.0, 'B_star': 0.0, 'ephemeris_type': 2, 'elset_num': 9999, 'inclination': 10.6012, 'RAAN': 52.5042, 'eccentricity': 0.0791976, 'perigee': 173.7783, 'mean_anomaly': 358.3671, 'mean_motion': 0.89622691, 'rev_num': 0, 'line1': '1 37952U 11074C   25221.84370404 +.00000000 +00000+0 +00000+0 2 99990', 'line2': '2 37952  10.6012  52.5042 0791976 173.7783 358.3671  0.89622691000007', 'epoch': datetime.datetime(2025, 8, 9, 20, 14, 56, 29056)}"
8f8468fb-8d4a-4bd4-8578-1580b7b13156,U//PR-EXO-ELSETS,24665,2025-08-09T20:14:54.905318Z,0.983792454809316,24665,False,0.0009568289152470334,11.40067097585176,38.13282463814384,119.7102871888509,66.42049388295322,0.0,0.0,0.0,42703.76870373113,1463.72336254511,42744.62890441688,42662.90850304537,24665,1 24665U 96067A   25221.84369103 +.00000000 +00000+0 +00000+0 2 99996,2 24665  11.4007  38.1328 0009568 119.7103  66.4205  0.98379245000003,2025-08-09T20:33:29.697Z,system.exo,EXO,REAL,2,OPS1,"{'NORAD_ID': 24665, 'classification': 'U', 'COSPAR_ID': '96067A', 'BC': 0.0, 'n_ddot': 0.0, 'B_star': 0.0, 'ephemeris_type': 2, 'elset_num': 9999, 'inclination': 11.4007, 'RAAN': 38.1328, 'eccentricity': 0.0009568, 'perigee': 119.7103, 'mean_anomaly': 66.4205, 'mean_motion': 0.98379245, 'rev_num': 0, 'line1': '1 24665U 96067A   25221.84369103 +.00000000 +00000+0 +00000+0 2 99996', 'line2': '2 24665  11.4007  38.1328 0009568 119.7103  66.4205  0.98379245000003', 'epoch': datetime.datetime(2025, 8, 9, 20, 14, 54, 904992)}"
08573133-eb2c-440e-8cfa-4325f18ca7c1,U//PR-EXO-ELSETS,23267,2025-08-09T04:14:12.832617Z,1.002861821682925,23267,False,0.0008077839919945532,14.25435450498091,351.9615649782772,206.5546218494455,163.6989631512977,0.0,0.0,0.0,42160.69844711565,1435.890736755242,42194.75518441255,42126.64170981877,23267,1 23267U 94060A   25221.17653741 +.00000000 +00000+0 +00000+0 2 99994,2 23267  14.2544 351.9616 0008077 206.5546 163.6990  1.00286182000005,2025-08-09T05:21:31.849Z,system.exo,EXO,REAL,2,OPS1,"{'NORAD_ID': 23267, 'classification': 'U', 'COSPAR_ID': '94060A', 'BC': 0.0, 'n_ddot': 0.0, 'B_star': 0.0, 'ephemeris_type': 2, 'elset_num': 9999, 'inclination': 14.2544, 'RAAN': 351.9616, 'eccentricity': 0.0008077, 'perigee': 206.5546, 'mean_anomaly': 163.699, 'mean_motion': 1.00286182, 'rev_num': 0, 'line1': '1 23267U 94060A   25221.17653741 +.00000000 +00000+0 +00000+0 2 99994', 'line2': '2 23267  14.2544 351.9616 0008077 206.5546 163.6990  1.00286182000005', 'epoch': datetime.datetime(2025, 8, 9, 4, 14, 12, 832224)}"
010ee343-900f-4826-a58e-3ed29cd606da,U//PR-EXO-ELSETS,21533,2025-08-08T23:15:52.813031Z,0.9890314335721466,21533,False,0.0005403680255965421,13.97071090673276,343.6819027043044,308.7567162044015,94.64139010898053,0.0,0.0,0.0,42552.83172957918,1455.969902593552,42575.82591924444,42529.83753991393,21533,1 21533U 91046A   25220.96936126 +.00000000 +00000+0 +00000+0 2 99996,2 21533  13.9707 343.6819 0005403 308.7567  94.6414  0.98903143000000,2025-08-09T00:51:31.256Z,system.exo,EXO,REAL,2,OPS1,"{'NORAD_ID': 21533, 'classification': 'U', 'COSPAR_ID': '91046A', 'BC': 0.0, 'n_ddot': 0.0, 'B_star': 0.0, 'ephemeris_type': 2, 'elset_num': 9999, 'inclination': 13.9707, 'RAAN': 343.6819, 'eccentricity': 0.0005403, 'perigee': 308.7567, 'mean_anomaly': 94.6414, 'mean_motion': 0.98903143, 'rev_num': 0, 'line1': '1 21533U 91046A   25220.96936126 +.00000000 +00000+0 +00000+0 2 99996', 'line2': '2 21533  13.9707 343.6819 0005403 308.7567  94.6414  0.98903143000000', 'epoch': datetime.datetime(2025, 8, 8, 23, 15, 52, 812864)}"
